{"fetched_at":"2026-07-07T18:29:09.813Z","source":"https://celestrak.org/NORAD/elements/gp.php?GROUP=spire&FORMAT=JSON","constellation":"spire","records":[{"OBJECT_NAME":"LEMUR-2-LEIA-PHILIP","OBJECT_ID":"2025-052AN","EPOCH":"2026-07-07T02:49:28.548192","CLASSIFICATION_TYPE":"U","MEAN_MOTION":14.97375287,"ECCENTRICITY":0.0004857,"INCLINATION":97.6816,"RA_OF_ASC_NODE":79.7311,"ARG_OF_PERICENTER":140.0077,"MEAN_ANOMALY":220.1504,"EPHEMERIS_TYPE":0,"NORAD_CAT_ID":63246,"ELEMENT_SET_NO":999,"REV_AT_EPOCH":7165,"BSTAR":0.00017584,"MEAN_MOTION_DOT":0.00001985,"MEAN_MOTION_DDOT":0},{"OBJECT_NAME":"LEMUR-2-LIA-MARTIN","OBJECT_ID":"2025-052AQ","EPOCH":"2026-07-06T15:33:07.566336","CLASSIFICATION_TYPE":"U","MEAN_MOTION":14.97976249,"ECCENTRICITY":0.0005203,"INCLINATION":97.6861,"RA_OF_ASC_NODE":79.773,"ARG_OF_PERICENTER":111.5295,"MEAN_ANOMALY":248.6482,"EPHEMERIS_TYPE":0,"NORAD_CAT_ID":63248,"ELEMENT_SET_NO":999,"REV_AT_EPOCH":7159,"BSTAR":0.00039684,"MEAN_MOTION_DOT":0.00004626,"MEAN_MOTION_DDOT":0},{"OBJECT_NAME":"LEMUR-2-DELOITTE-1","OBJECT_ID":"2025-052BB","EPOCH":"2026-07-06T16:39:10.933920","CLASSIFICATION_TYPE":"U","MEAN_MOTION":14.97742162,"ECCENTRICITY":0.0002286,"INCLINATION":97.6883,"RA_OF_ASC_NODE":80.1499,"ARG_OF_PERICENTER":65.5794,"MEAN_ANOMALY":294.5666,"EPHEMERIS_TYPE":0,"NORAD_CAT_ID":63259,"ELEMENT_SET_NO":999,"REV_AT_EPOCH":7161,"BSTAR":0.00028529,"MEAN_MOTION_DOT":0.00003288,"MEAN_MOTION_DDOT":0},{"OBJECT_NAME":"LEMUR-2-EMERSONROSE","OBJECT_ID":"2025-052BD","EPOCH":"2026-07-07T04:24:37.805760","CLASSIFICATION_TYPE":"U","MEAN_MOTION":14.99240847,"ECCENTRICITY":0.0002748,"INCLINATION":97.6871,"RA_OF_ASC_NODE":81.2273,"ARG_OF_PERICENTER":73.814,"MEAN_ANOMALY":286.3386,"EPHEMERIS_TYPE":0,"NORAD_CAT_ID":63261,"ELEMENT_SET_NO":999,"REV_AT_EPOCH":7173,"BSTAR":0.00029729,"MEAN_MOTION_DOT":0.00003566,"MEAN_MOTION_DDOT":0},{"OBJECT_NAME":"LEMUR-2-MARACHE-FRAN","OBJECT_ID":"2025-052BE","EPOCH":"2026-07-07T03:29:13.335936","CLASSIFICATION_TYPE":"U","MEAN_MOTION":15.00280659,"ECCENTRICITY":0.0004512,"INCLINATION":97.6865,"RA_OF_ASC_NODE":81.5468,"ARG_OF_PERICENTER":290.2178,"MEAN_ANOMALY":69.856,"EPHEMERIS_TYPE":0,"NORAD_CAT_ID":63262,"ELEMENT_SET_NO":999,"REV_AT_EPOCH":7175,"BSTAR":0.00022321,"MEAN_MOTION_DOT":0.00002737,"MEAN_MOTION_DDOT":0},{"OBJECT_NAME":"LEMUR-2-THEFALCONER","OBJECT_ID":"2025-052BG","EPOCH":"2026-07-07T12:35:55.732704","CLASSIFICATION_TYPE":"U","MEAN_MOTION":14.97535872,"ECCENTRICITY":0.0000898,"INCLINATION":97.6846,"RA_OF_ASC_NODE":80.5658,"ARG_OF_PERICENTER":26.347,"MEAN_ANOMALY":333.7797,"EPHEMERIS_TYPE":0,"NORAD_CAT_ID":63264,"ELEMENT_SET_NO":999,"REV_AT_EPOCH":7173,"BSTAR":0.00025819,"MEAN_MOTION_DOT":0.00002954,"MEAN_MOTION_DDOT":0},{"OBJECT_NAME":"LEMUR-2-UNTITLED-SC","OBJECT_ID":"2025-061A","EPOCH":"2026-07-07T10:49:47.808192","CLASSIFICATION_TYPE":"U","MEAN_MOTION":15.13613733,"ECCENTRICITY":0.0018404,"INCLINATION":97.5648,"RA_OF_ASC_NODE":163.6676,"ARG_OF_PERICENTER":189.4039,"MEAN_ANOMALY":170.685,"EPHEMERIS_TYPE":0,"NORAD_CAT_ID":63351,"ELEMENT_SET_NO":999,"REV_AT_EPOCH":7065,"BSTAR":0.00012007,"MEAN_MOTION_DOT":0.00002097,"MEAN_MOTION_DDOT":0},{"OBJECT_NAME":"LEMUR-2-ESPERANZA","OBJECT_ID":"2025-061B","EPOCH":"2026-07-07T08:39:52.627392","CLASSIFICATION_TYPE":"U","MEAN_MOTION":15.13720454,"ECCENTRICITY":0.0018012,"INCLINATION":97.5652,"RA_OF_ASC_NODE":163.6759,"ARG_OF_PERICENTER":189.3073,"MEAN_ANOMALY":170.7827,"EPHEMERIS_TYPE":0,"NORAD_CAT_ID":63352,"ELEMENT_SET_NO":999,"REV_AT_EPOCH":7064,"BSTAR":0.00019115,"MEAN_MOTION_DOT":0.00003389,"MEAN_MOTION_DDOT":0},{"OBJECT_NAME":"LEMUR-2-KREMPEL-BRO2","OBJECT_ID":"2025-061C","EPOCH":"2026-07-07T09:10:21.604800","CLASSIFICATION_TYPE":"U","MEAN_MOTION":15.14144257,"ECCENTRICITY":0.0019161,"INCLINATION":97.5702,"RA_OF_ASC_NODE":164.2565,"ARG_OF_PERICENTER":181.6004,"MEAN_ANOMALY":178.5169,"EPHEMERIS_TYPE":0,"NORAD_CAT_ID":63353,"ELEMENT_SET_NO":999,"REV_AT_EPOCH":7066,"BSTAR":0.00012001,"MEAN_MOTION_DOT":0.00002129,"MEAN_MOTION_DDOT":0},{"OBJECT_NAME":"LEMUR-2-THERMORAPTOR","OBJECT_ID":"2025-061D","EPOCH":"2026-07-07T10:18:08.396640","CLASSIFICATION_TYPE":"U","MEAN_MOTION":15.14226483,"ECCENTRICITY":0.0018931,"INCLINATION":97.5706,"RA_OF_ASC_NODE":164.3826,"ARG_OF_PERICENTER":180.3649,"MEAN_ANOMALY":179.7572,"EPHEMERIS_TYPE":0,"NORAD_CAT_ID":63354,"ELEMENT_SET_NO":999,"REV_AT_EPOCH":7067,"BSTAR":0.00014336,"MEAN_MOTION_DOT":0.00002562,"MEAN_MOTION_DDOT":0},{"OBJECT_NAME":"LEMUR-2-NEUROSPICY","OBJECT_ID":"2025-061E","EPOCH":"2026-07-07T11:10:15.847680","CLASSIFICATION_TYPE":"U","MEAN_MOTION":15.14346479,"ECCENTRICITY":0.0016679,"INCLINATION":97.5635,"RA_OF_ASC_NODE":164.0292,"ARG_OF_PERICENTER":183.0672,"MEAN_ANOMALY":177.0461,"EPHEMERIS_TYPE":0,"NORAD_CAT_ID":63355,"ELEMENT_SET_NO":999,"REV_AT_EPOCH":7068,"BSTAR":0.00015088,"MEAN_MOTION_DOT":0.00002707,"MEAN_MOTION_DDOT":0},{"OBJECT_NAME":"LEMUR-2-TILLINFINITY","OBJECT_ID":"2025-061F","EPOCH":"2026-07-07T08:39:33.657408","CLASSIFICATION_TYPE":"U","MEAN_MOTION":15.14927906,"ECCENTRICITY":0.0018249,"INCLINATION":97.562,"RA_OF_ASC_NODE":164.2297,"ARG_OF_PERICENTER":172.0497,"MEAN_ANOMALY":188.1027,"EPHEMERIS_TYPE":0,"NORAD_CAT_ID":63356,"ELEMENT_SET_NO":999,"REV_AT_EPOCH":7069,"BSTAR":0.00015039,"MEAN_MOTION_DOT":0.00002745,"MEAN_MOTION_DDOT":0},{"OBJECT_NAME":"LEMUR-2-KREMPEL-BRO1","OBJECT_ID":"2025-061G","EPOCH":"2026-07-07T09:40:12.229248","CLASSIFICATION_TYPE":"U","MEAN_MOTION":15.14737363,"ECCENTRICITY":0.0018889,"INCLINATION":97.5621,"RA_OF_ASC_NODE":164.1821,"ARG_OF_PERICENTER":173.275,"MEAN_ANOMALY":186.8739,"EPHEMERIS_TYPE":0,"NORAD_CAT_ID":63357,"ELEMENT_SET_NO":999,"REV_AT_EPOCH":7069,"BSTAR":0.00016005,"MEAN_MOTION_DOT":0.00002911,"MEAN_MOTION_DDOT":0},{"OBJECT_NAME":"LEMUR-2-LANGER2SPACE","OBJECT_ID":"2025-061H","EPOCH":"2026-07-07T11:59:20.853024","CLASSIFICATION_TYPE":"U","MEAN_MOTION":15.14430042,"ECCENTRICITY":0.001663,"INCLINATION":97.5624,"RA_OF_ASC_NODE":164.0841,"ARG_OF_PERICENTER":181.3139,"MEAN_ANOMALY":178.8052,"EPHEMERIS_TYPE":0,"NORAD_CAT_ID":63358,"ELEMENT_SET_NO":999,"REV_AT_EPOCH":7069,"BSTAR":0.00013256,"MEAN_MOTION_DOT":0.00002376,"MEAN_MOTION_DDOT":0},{"OBJECT_NAME":"LEMUR-2-BALTO","OBJECT_ID":"2025-052BH","EPOCH":"2026-07-07T04:43:04.141344","CLASSIFICATION_TYPE":"U","MEAN_MOTION":15.00313404,"ECCENTRICITY":0.0005649,"INCLINATION":97.6926,"RA_OF_ASC_NODE":81.5775,"ARG_OF_PERICENTER":359.1139,"MEAN_ANOMALY":1.0073,"EPHEMERIS_TYPE":0,"NORAD_CAT_ID":63395,"ELEMENT_SET_NO":999,"REV_AT_EPOCH":7176,"BSTAR":0.0003122,"MEAN_MOTION_DOT":0.00003856,"MEAN_MOTION_DDOT":0},{"OBJECT_NAME":"LEMUR-2-KRISH","OBJECT_ID":"2025-135AK","EPOCH":"2026-07-07T06:28:53.031072","CLASSIFICATION_TYPE":"U","MEAN_MOTION":14.96401488,"ECCENTRICITY":0.0001744,"INCLINATION":97.776,"RA_OF_ASC_NODE":303.0109,"ARG_OF_PERICENTER":100.781,"MEAN_ANOMALY":259.3608,"EPHEMERIS_TYPE":0,"NORAD_CAT_ID":64561,"ELEMENT_SET_NO":999,"REV_AT_EPOCH":5692,"BSTAR":0.00037657,"MEAN_MOTION_DOT":0.0000421,"MEAN_MOTION_DDOT":0}]}
